start=new Date('2022-12-26T00:00:00.000Z').valueOf();
sats=[{"REF_FRAME":"TEME","MEAN_ELEMENT_THEORY":"SGP4","ECCENTRICITY":"0.00017240","MEAN_MOTION_DDOT":"0.0000000000000","GP_ID":"221452540","COUNTRY_CODE":"US","RA_OF_ASC_NODE":"120.6944","MEAN_MOTION":"15.08834701","CLASSIFICATION_TYPE":"U","MEAN_MOTION_DOT":"-0.00000197","INCLINATION":"53.2197","RCS_SIZE":"LARGE","PERIAPSIS":"538.569","MEAN_ANOMALY":"317.1430","EPHEMERIS_TYPE":"0","OBJECT_NAME":"STARLINK-3988","TLE_LINE1":"1 52625U 22052AD  22359.86073976 -.00000197  00000-0  57496-5 0  9992","APOAPSIS":"540.954","TIME_SYSTEM":"UTC","BSTAR":"0.00000574960000","ARG_OF_PERICENTER":"42.9697","FILE":"3722315","SEMIMAJOR_AXIS":"6917.897","LAUNCH_DATE":"2022-05-14","CENTER_NAME":"EARTH","OBJECT_TYPE":"PAYLOAD","TLE_LINE2":"2 52625  53.2197 120.6944 0001724  42.9697 317.1430 15.08834701 34380","NORAD_CAT_ID":"52625","REV_AT_EPOCH":"3438","DECAY_DATE":null,"SITE":"AFETR","PERIOD":"95.438","OBJECT_ID":"2022-052AD","ELEMENT_SET_NO":"999","EPOCH":"2022-12-25T20:39:27.915264"},{"APOAPSIS":"541.180","BSTAR":"0.00011325000000","TIME_SYSTEM":"UTC","TLE_LINE1":"1 52626U 22052AE  22359.60680314  .00001515  00000-0  11325-3 0  9998","OBJECT_NAME":"STARLINK-3990","ARG_OF_PERICENTER":"43.2858","EPHEMERIS_TYPE":"0","MEAN_ANOMALY":"316.8297","REV_AT_EPOCH":"3434","NORAD_CAT_ID":"52626","TLE_LINE2":"2 52626  53.2184 121.8400 0002077  43.2858 316.8297 15.08840803 34345","EPOCH":"2022-12-25T14:33:47.791296","ELEMENT_SET_NO":"999","OBJECT_ID":"2022-052AE","DECAY_DATE":null,"SITE":"AFETR","PERIOD":"95.438","SEMIMAJOR_AXIS":"6917.878","LAUNCH_DATE":"2022-05-14","FILE":"3722315","OBJECT_TYPE":"PAYLOAD","CENTER_NAME":"EARTH","GP_ID":"221452790","RA_OF_ASC_NODE":"121.8400","COUNTRY_CODE":"US","REF_FRAME":"TEME","ECCENTRICITY":"0.00020770","MEAN_MOTION_DDOT":"0.0000000000000","MEAN_ELEMENT_THEORY":"SGP4","CLASSIFICATION_TYPE":"U","PERIAPSIS":"538.306","INCLINATION":"53.2184","RCS_SIZE":"LARGE","MEAN_MOTION_DOT":"0.00001515","MEAN_MOTION":"15.08840803"},{"MEAN_MOTION_DOT":"0.00001005","INCLINATION":"53.2166","RCS_SIZE":"LARGE","PERIAPSIS":"537.652","CLASSIFICATION_TYPE":"U","MEAN_MOTION":"15.08832440","COUNTRY_CODE":"US","RA_OF_ASC_NODE":"121.6367","GP_ID":"221453042","MEAN_ELEMENT_THEORY":"SGP4","MEAN_MOTION_DDOT":"0.0000000000000","ECCENTRICITY":"0.00030600","REF_FRAME":"TEME","DECAY_DATE":null,"SITE":"AFETR","PERIOD":"95.438","OBJECT_ID":"2022-052AF","ELEMENT_SET_NO":"999","EPOCH":"2022-12-25T15:37:24.138912","TLE_LINE2":"2 52627  53.2166 121.6367 0003060  42.1132 318.0095 15.08832440 34362","NORAD_CAT_ID":"52627","REV_AT_EPOCH":"3436","CENTER_NAME":"EARTH","OBJECT_TYPE":"PAYLOAD","FILE":"3722315","SEMIMAJOR_AXIS":"6917.903","LAUNCH_DATE":"2022-05-14","ARG_OF_PERICENTER":"42.1132","OBJECT_NAME":"STARLINK-3992","TLE_LINE1":"1 52627U 22052AF  22359.65097383  .00001005  00000-0  81270-4 0  9993","TIME_SYSTEM":"UTC","APOAPSIS":"541.885","BSTAR":"0.00008127000000","MEAN_ANOMALY":"318.0095","EPHEMERIS_TYPE":"0"},{"MEAN_MOTION":"15.08834113","CLASSIFICATION_TYPE":"U","MEAN_MOTION_DOT":"-0.00000511","INCLINATION":"53.2170","RCS_SIZE":"LARGE","PERIAPSIS":"537.934","REF_FRAME":"TEME","MEAN_ELEMENT_THEORY":"SGP4","ECCENTRICITY":"0.00026440","MEAN_MOTION_DDOT":"0.0000000000000","GP_ID":"221453791","COUNTRY_CODE":"US","RA_OF_ASC_NODE":"136.7216","FILE":"3722315","LAUNCH_DATE":"2022-05-14","SEMIMAJOR_AXIS":"6917.898","CENTER_NAME":"EARTH","OBJECT_TYPE":"PAYLOAD","TLE_LINE2":"2 52628  53.2170 136.7216 0002644  48.0316 312.0901 15.08834113 34149","NORAD_CAT_ID":"52628","REV_AT_EPOCH":"3414","DECAY_DATE":null,"SITE":"AFETR","PERIOD":"95.438","OBJECT_ID":"2022-052AG","ELEMENT_SET_NO":"999","EPOCH":"2022-12-25T15:11:33.893952","MEAN_ANOMALY":"312.0901","EPHEMERIS_TYPE":"0","OBJECT_NAME":"STARLINK-4001","TLE_LINE1":"1 52628U 22052AG  22359.63303118 -.00000511  00000-0 -14008-4 0  9996","TIME_SYSTEM":"UTC","APOAPSIS":"541.592","BSTAR":"-0.00001400800000","ARG_OF_PERICENTER":"48.0316"},{"FILE":"3722315","SEMIMAJOR_AXIS":"6917.927","LAUNCH_DATE":"2022-05-14","CENTER_NAME":"EARTH","OBJECT_TYPE":"PAYLOAD","NORAD_CAT_ID":"52629","TLE_LINE2":"2 52629  53.2174 121.0617 0002729  40.0379 320.0814 15.08824890 34379","REV_AT_EPOCH":"3437","ELEMENT_SET_NO":"999","SITE":"AFETR","DECAY_DATE":null,"OBJECT_ID":"2022-052AH","PERIOD":"95.439","EPOCH":"2022-12-25T18:42:52.744896","MEAN_ANOMALY":"320.0814","EPHEMERIS_TYPE":"0","OBJECT_NAME":"STARLINK-4022","APOAPSIS":"541.679","BSTAR":"-0.00001681300000","TIME_SYSTEM":"UTC","TLE_LINE1":"1 52629U 22052AH  22359.77977714 -.00000556  00000-0 -16813-4 0  9996","ARG_OF_PERICENTER":"40.0379","MEAN_MOTION":"15.08824890","CLASSIFICATION_TYPE":"U","MEAN_MOTION_DOT":"-0.00000556","PERIAPSIS":"537.904","RCS_SIZE":"LARGE","INCLINATION":"53.2174","REF_FRAME":"TEME","MEAN_ELEMENT_THEORY":"SGP4","MEAN_MOTION_DDOT":"0.0000000000000","ECCENTRICITY":"0.00027290","GP_ID":"221452041","COUNTRY_CODE":"US","RA_OF_ASC_NODE":"121.0617"},{"EPHEMERIS_TYPE":"0","MEAN_ANOMALY":"312.5454","ARG_OF_PERICENTER":"47.5795","BSTAR":"0.00009949300000","APOAPSIS":"541.876","TIME_SYSTEM":"UTC","TLE_LINE1":"1 52630U 22052AJ  22359.59209506  .00001295  00000-0  99493-4 0  9999","OBJECT_NAME":"STARLINK-3989","OBJECT_TYPE":"PAYLOAD","CENTER_NAME":"EARTH","SEMIMAJOR_AXIS":"6917.904","LAUNCH_DATE":"2022-05-14","FILE":"3722315","EPOCH":"2022-12-25T14:12:37.013184","ELEMENT_SET_NO":"999","PERIOD":"95.438","DECAY_DATE":null,"SITE":"AFETR","OBJECT_ID":"2022-052AJ","REV_AT_EPOCH":"3434","NORAD_CAT_ID":"52630","TLE_LINE2":"2 52630  53.2185 121.9044 0003046  47.5795 312.5454 15.08832288 34346","ECCENTRICITY":"0.00030460","MEAN_MOTION_DDOT":"0.0000000000000","MEAN_ELEMENT_THEORY":"SGP4","REF_FRAME":"TEME","RA_OF_ASC_NODE":"121.9044","COUNTRY_CODE":"US","GP_ID":"221452291","MEAN_MOTION":"15.08832288","PERIAPSIS":"537.662","INCLINATION":"53.2185","RCS_SIZE":"LARGE","MEAN_MOTION_DOT":"0.00001295","CLASSIFICATION_TYPE":"U"},{"SEMIMAJOR_AXIS":"6917.900","LAUNCH_DATE":"2022-05-14","FILE":"3722315","OBJECT_TYPE":"PAYLOAD","CENTER_NAME":"EARTH","REV_AT_EPOCH":"3437","TLE_LINE2":"2 52631  53.2175 121.3805 0002900  43.4470 316.6750 15.08833614 34379","NORAD_CAT_ID":"52631","EPOCH":"2022-12-25T17:02:11.122080","DECAY_DATE":null,"SITE":"AFETR","PERIOD":"95.438","OBJECT_ID":"2022-052AK","ELEMENT_SET_NO":"999","EPHEMERIS_TYPE":"0","MEAN_ANOMALY":"316.6750","TLE_LINE1":"1 52631U 22052AK  22359.70985095  .00001024  00000-0  82486-4 0  9991","TIME_SYSTEM":"UTC","APOAPSIS":"541.771","BSTAR":"0.00008248600000","OBJECT_NAME":"STARLINK-3794","ARG_OF_PERICENTER":"43.4470","MEAN_MOTION":"15.08833614","CLASSIFICATION_TYPE":"U","INCLINATION":"53.2175","RCS_SIZE":"LARGE","PERIAPSIS":"537.759","MEAN_MOTION_DOT":"0.00001024","REF_FRAME":"TEME","ECCENTRICITY":"0.00029000","MEAN_MOTION_DDOT":"0.0000000000000","MEAN_ELEMENT_THEORY":"SGP4","GP_ID":"221453541","RA_OF_ASC_NODE":"121.3805","COUNTRY_CODE":"US"},{"OBJECT_TYPE":"PAYLOAD","CENTER_NAME":"EARTH","SEMIMAJOR_AXIS":"6917.897","LAUNCH_DATE":"2022-05-14","FILE":"3722315","EPOCH":"2022-12-25T17:18:05.073120","OBJECT_ID":"2022-052AL","DECAY_DATE":null,"SITE":"AFETR","PERIOD":"95.438","ELEMENT_SET_NO":"999","REV_AT_EPOCH":"3437","TLE_LINE2":"2 52632  53.2191 121.3173 0002735  33.1133 327.0030 15.08834413 34379","NORAD_CAT_ID":"52632","EPHEMERIS_TYPE":"0","MEAN_ANOMALY":"327.0030","ARG_OF_PERICENTER":"33.1133","TLE_LINE1":"1 52632U 22052AL  22359.72089205  .00000433  00000-0  45325-4 0  9996","BSTAR":"0.00004532500000","APOAPSIS":"541.655","TIME_SYSTEM":"UTC","OBJECT_NAME":"STARLINK-3995","MEAN_MOTION":"15.08834413","RCS_SIZE":"LARGE","INCLINATION":"53.2191","PERIAPSIS":"537.870","MEAN_MOTION_DOT":"0.00000433","CLASSIFICATION_TYPE":"U","MEAN_MOTION_DDOT":"0.0000000000000","ECCENTRICITY":"0.00027350","MEAN_ELEMENT_THEORY":"SGP4","REF_FRAME":"TEME","RA_OF_ASC_NODE":"121.3173","COUNTRY_CODE":"US","GP_ID":"221453292"},{"TLE_LINE2":"2 52633  53.2192 121.1228 0002448  42.0435 318.0745 15.08830951 34382","NORAD_CAT_ID":"52633","REV_AT_EPOCH":"3438","DECAY_DATE":null,"PERIOD":"95.438","SITE":"AFETR","OBJECT_ID":"2022-052AM","ELEMENT_SET_NO":"999","EPOCH":"2022-12-25T18:21:40.440960","FILE":"3722315","LAUNCH_DATE":"2022-05-14","SEMIMAJOR_AXIS":"6917.908","CENTER_NAME":"EARTH","OBJECT_TYPE":"PAYLOAD","OBJECT_NAME":"STARLINK-3994","TLE_LINE1":"1 52633U 22052AM  22359.76505140 -.00000722  00000-0 -27225-4 0  9994","APOAPSIS":"541.467","TIME_SYSTEM":"UTC","BSTAR":"-0.00002722500000","ARG_OF_PERICENTER":"42.0435","MEAN_ANOMALY":"318.0745","EPHEMERIS_TYPE":"0","CLASSIFICATION_TYPE":"U","MEAN_MOTION_DOT":"-0.00000722","RCS_SIZE":"LARGE","INCLINATION":"53.2192","PERIAPSIS":"538.080","MEAN_MOTION":"15.08830951","GP_ID":"221452541","COUNTRY_CODE":"US","RA_OF_ASC_NODE":"121.1228","REF_FRAME":"TEME","MEAN_ELEMENT_THEORY":"SGP4","MEAN_MOTION_DDOT":"0.0000000000000","ECCENTRICITY":"0.00024480"},{"COUNTRY_CODE":"US","RA_OF_ASC_NODE":"121.0712","GP_ID":"221452791","MEAN_ELEMENT_THEORY":"SGP4","ECCENTRICITY":"0.00025800","MEAN_MOTION_DDOT":"0.0000000000000","REF_FRAME":"TEME","MEAN_MOTION_DOT":"-0.00001324","PERIAPSIS":"537.962","INCLINATION":"53.2173","RCS_SIZE":"LARGE","CLASSIFICATION_TYPE":"U","MEAN_MOTION":"15.08839553","ARG_OF_PERICENTER":"43.2003","OBJECT_NAME":"STARLINK-3974","TIME_SYSTEM":"UTC","APOAPSIS":"541.532","BSTAR":"-0.00006508300000","TLE_LINE1":"1 52634U 22052AN  22359.77704637 -.00001324  00000-0 -65083-4 0  9991","MEAN_ANOMALY":"316.9191","EPHEMERIS_TYPE":"0","ELEMENT_SET_NO":"999","DECAY_DATE":null,"SITE":"AFETR","PERIOD":"95.438","OBJECT_ID":"2022-052AN","EPOCH":"2022-12-25T18:38:56.806368","NORAD_CAT_ID":"52634","TLE_LINE2":"2 52634  53.2173 121.0712 0002580  43.2003 316.9191 15.08839553 34378","REV_AT_EPOCH":"3437","CENTER_NAME":"EARTH","OBJECT_TYPE":"PAYLOAD","FILE":"3722315","LAUNCH_DATE":"2022-05-14","SEMIMAJOR_AXIS":"6917.882"}];
